GSAT0208 (GALILEO 11)
1 41175U 15079B   25357.28382752  .00000011  00000+0  00000+0 0  9999
2 41175  55.7171 106.0888 0001871 351.9973   7.9840  1.70474210 62193